[{"OBJECT_NAME":"STARLINK-4575","OBJECT_ID":"2022-101AQ","EPOCH":"2026-03-09T23:00:57.805632","MEAN_MOTION":15.08839588,"ECCENTRICITY":0.0001454,"INCLINATION":53.2177,"RA_OF_ASC_NODE":53.0625,"ARG_OF_PERICENTER":89.6964,"MEAN_ANOMALY":270.4195,"EPHEMERIS_TYPE":0,"CLASSIFICATION_TYPE":"U","NORAD_CAT_ID":53565,"ELEMENT_SET_NO":999,"REV_AT_EPOCH":19714,"BSTAR":1.793194e-6,"MEAN_MOTION_DOT":-2.59e-6,"MEAN_MOTION_DDOT":0},{"OBJECT_NAME":"POSAT-2","OBJECT_ID":"2025-009DR","EPOCH":"2026-03-09T23:15:20.314368","MEAN_MOTION":15.10404492,"ECCENTRICITY":0.00077103,"INCLINATION":97.4906,"RA_OF_ASC_NODE":146.0095,"ARG_OF_PERICENTER":126.4226,"MEAN_ANOMALY":233.7715,"EPHEMERIS_TYPE":0,"CLASSIFICATION_TYPE":"U","NORAD_CAT_ID":63488,"ELEMENT_SET_NO":999,"REV_AT_EPOCH":5165,"BSTAR":0.0010942248,"MEAN_MOTION_DOT":0.00017957,"MEAN_MOTION_DDOT":0}]
